{"fetched_at":"2026-07-13T07:48:35.218Z","source":"https://celestrak.org/NORAD/elements/gp.php?NAME=O3B&FORMAT=JSON","constellation":"o3b-mpower","records":[{"OBJECT_NAME":"O3B MPOWER F1","OBJECT_ID":"2022-174A","EPOCH":"2026-07-12T15:32:17.752416","CLASSIFICATION_TYPE":"U","MEAN_MOTION":5.00114738,"ECCENTRICITY":0.0006616,"INCLINATION":0.0495,"RA_OF_ASC_NODE":339.5137,"ARG_OF_PERICENTER":142.7015,"MEAN_ANOMALY":90.1137,"EPHEMERIS_TYPE":0,"NORAD_CAT_ID":54755,"ELEMENT_SET_NO":999,"REV_AT_EPOCH":6663,"BSTAR":0,"MEAN_MOTION_DOT":-1.8e-7,"MEAN_MOTION_DDOT":0},{"OBJECT_NAME":"O3B MPOWER F2","OBJECT_ID":"2022-174B","EPOCH":"2026-07-12T07:06:47.858400","CLASSIFICATION_TYPE":"U","MEAN_MOTION":5.00114935,"ECCENTRICITY":0.00057978,"INCLINATION":0.0454,"RA_OF_ASC_NODE":339.8194,"ARG_OF_PERICENTER":125.8325,"MEAN_ANOMALY":254.4105,"EPHEMERIS_TYPE":0,"NORAD_CAT_ID":54756,"ELEMENT_SET_NO":999,"REV_AT_EPOCH":6670,"BSTAR":0,"MEAN_MOTION_DOT":-1.7e-7,"MEAN_MOTION_DDOT":0},{"OBJECT_NAME":"O3B MPOWER F4","OBJECT_ID":"2023-059A","EPOCH":"2026-07-12T18:14:58.612704","CLASSIFICATION_TYPE":"U","MEAN_MOTION":5.00115388,"ECCENTRICITY":0.0007729,"INCLINATION":0.063,"RA_OF_ASC_NODE":350.3155,"ARG_OF_PERICENTER":124.5435,"MEAN_ANOMALY":245.2195,"EPHEMERIS_TYPE":0,"NORAD_CAT_ID":56367,"ELEMENT_SET_NO":999,"REV_AT_EPOCH":5988,"BSTAR":0,"MEAN_MOTION_DOT":-1.8e-7,"MEAN_MOTION_DDOT":0},{"OBJECT_NAME":"O3B MPOWER F3","OBJECT_ID":"2023-059B","EPOCH":"2026-07-12T19:02:41.650368","CLASSIFICATION_TYPE":"U","MEAN_MOTION":5.00116394,"ECCENTRICITY":0.0006677,"INCLINATION":0.0637,"RA_OF_ASC_NODE":349.602,"ARG_OF_PERICENTER":118.5233,"MEAN_ANOMALY":251.9456,"EPHEMERIS_TYPE":0,"NORAD_CAT_ID":56368,"ELEMENT_SET_NO":999,"REV_AT_EPOCH":5600,"BSTAR":0,"MEAN_MOTION_DOT":-1.8e-7,"MEAN_MOTION_DDOT":0},{"OBJECT_NAME":"O3B MPOWER F5","OBJECT_ID":"2023-175A","EPOCH":"2026-07-12T07:04:36.018912","CLASSIFICATION_TYPE":"U","MEAN_MOTION":5.00115833,"ECCENTRICITY":0.00054687,"INCLINATION":0.0519,"RA_OF_ASC_NODE":9.3794,"ARG_OF_PERICENTER":119.5646,"MEAN_ANOMALY":231.1032,"EPHEMERIS_TYPE":0,"NORAD_CAT_ID":58346,"ELEMENT_SET_NO":999,"REV_AT_EPOCH":5069,"BSTAR":0,"MEAN_MOTION_DOT":-1.7e-7,"MEAN_MOTION_DDOT":0},{"OBJECT_NAME":"O3B MPOWER F6","OBJECT_ID":"2023-175B","EPOCH":"2026-07-12T14:17:07.656864","CLASSIFICATION_TYPE":"U","MEAN_MOTION":5.00115737,"ECCENTRICITY":0.0004435,"INCLINATION":0.0539,"RA_OF_ASC_NODE":1.0526,"ARG_OF_PERICENTER":108.6078,"MEAN_ANOMALY":250.3856,"EPHEMERIS_TYPE":0,"NORAD_CAT_ID":58347,"ELEMENT_SET_NO":999,"REV_AT_EPOCH":4962,"BSTAR":0,"MEAN_MOTION_DOT":-1.8e-7,"MEAN_MOTION_DDOT":0},{"OBJECT_NAME":"O3B MPOWER F7","OBJECT_ID":"2024-244A","EPOCH":"2026-07-12T11:04:53.952384","CLASSIFICATION_TYPE":"U","MEAN_MOTION":5.00115309,"ECCENTRICITY":0.00059358,"INCLINATION":0.0661,"RA_OF_ASC_NODE":343.3115,"ARG_OF_PERICENTER":123.6756,"MEAN_ANOMALY":253.0764,"EPHEMERIS_TYPE":0,"NORAD_CAT_ID":62362,"ELEMENT_SET_NO":999,"REV_AT_EPOCH":2778,"BSTAR":0,"MEAN_MOTION_DOT":-1.8e-7,"MEAN_MOTION_DDOT":0},{"OBJECT_NAME":"O3B MPOWER F8","OBJECT_ID":"2024-244B","EPOCH":"2026-07-12T10:17:18.307104","CLASSIFICATION_TYPE":"U","MEAN_MOTION":5.00115023,"ECCENTRICITY":0.00057767,"INCLINATION":0.0143,"RA_OF_ASC_NODE":0.7572,"ARG_OF_PERICENTER":98.9787,"MEAN_ANOMALY":260.3276,"EPHEMERIS_TYPE":0,"NORAD_CAT_ID":62363,"ELEMENT_SET_NO":999,"REV_AT_EPOCH":2213,"BSTAR":0,"MEAN_MOTION_DOT":-1.7e-7,"MEAN_MOTION_DDOT":0},{"OBJECT_NAME":"O3B MPOWER F9","OBJECT_ID":"2025-153A","EPOCH":"2026-07-12T18:17:03.859008","CLASSIFICATION_TYPE":"U","MEAN_MOTION":5.0011564,"ECCENTRICITY":0.0006703,"INCLINATION":0.0611,"RA_OF_ASC_NODE":5.9025,"ARG_OF_PERICENTER":123.9406,"MEAN_ANOMALY":230.2139,"EPHEMERIS_TYPE":0,"NORAD_CAT_ID":64866,"ELEMENT_SET_NO":999,"REV_AT_EPOCH":2084,"BSTAR":0,"MEAN_MOTION_DOT":-1.8e-7,"MEAN_MOTION_DDOT":0},{"OBJECT_NAME":"O3B MPOWER F10","OBJECT_ID":"2025-153B","EPOCH":"2026-07-12T03:04:38.796384","CLASSIFICATION_TYPE":"U","MEAN_MOTION":5.00114861,"ECCENTRICITY":0.00023755,"INCLINATION":0.0582,"RA_OF_ASC_NODE":2.5215,"ARG_OF_PERICENTER":245.2939,"MEAN_ANOMALY":112.1579,"EPHEMERIS_TYPE":0,"NORAD_CAT_ID":64867,"ELEMENT_SET_NO":999,"REV_AT_EPOCH":2328,"BSTAR":0,"MEAN_MOTION_DOT":-1.7e-7,"MEAN_MOTION_DDOT":0}]}
