O3B MPOWER F1           
1 54755U 22174A   26193.64742769 -.00000018  00000+0  00000+0 0  9996
2 54755   0.0495 339.5137 0006616 142.7015  90.1137  5.00114738 66637
O3B MPOWER F2           
1 54756U 22174B   26193.29638725 -.00000017  00000+0  00000+0 0  9993
2 54756   0.0454 339.8194 0005797 125.8325 254.4105  5.00114935 66701
O3B MPOWER F4           
1 56367U 23059A   26193.76040061 -.00000018  00000+0  00000+0 0  9999
2 56367   0.0630 350.3155 0007729 124.5435 245.2195  5.00115388 59888
O3B MPOWER F3           
1 56368U 23059B   26193.79353762 -.00000018  00000+0  00000+0 0  9998
2 56368   0.0637 349.6020 0006677 118.5233 251.9456  5.00116394 56001
O3B MPOWER F5           
1 58346U 23175A   26193.29486133 -.00000017  00000+0  00000+0 0  9998
2 58346   0.0519   9.3794 0005468 119.5646 231.1032  5.00115833 50698
O3B MPOWER F6           
1 58347U 23175B   26193.59522751 -.00000018  00000+0  00000+0 0  9990
2 58347   0.0539   1.0526 0004435 108.6078 250.3856  5.00115737 49625
O3B MPOWER F7           
1 62362U 24244A   26193.46173556 -.00000018  00000+0  00000+0 0  9991
2 62362   0.0661 343.3115 0005935 123.6756 253.0764  5.00115309 27781
O3B MPOWER F8           
1 62363U 24244B   26193.42868411 -.00000017  00000+0  00000+0 0  9998
2 62363   0.0143   0.7572 0005776  98.9787 260.3276  5.00115023 22135
O3B MPOWER F9           
1 64866U 25153A   26193.76185022 -.00000018  00000+0  00000+0 0  9996
2 64866   0.0611   5.9025 0006703 123.9406 230.2139  5.00115640 20848
O3B MPOWER F10          
1 64867U 25153B   26193.12822681 -.00000017  00000+0  00000+0 0  9995
2 64867   0.0582   2.5215 0002375 245.2939 112.1579  5.00114861 23281
